[{"OBJECT_NAME":"ION SCV-015","OBJECT_ID":"2023-185H","EPOCH":"2026-03-09T22:36:51.209568","MEAN_MOTION":15.3163624,"ECCENTRICITY":0.00109059,"INCLINATION":97.5772,"RA_OF_ASC_NODE":155.3582,"ARG_OF_PERICENTER":92.3805,"MEAN_ANOMALY":267.8685,"EPHEMERIS_TYPE":0,"CLASSIFICATION_TYPE":"U","NORAD_CAT_ID":58469,"ELEMENT_SET_NO":999,"REV_AT_EPOCH":12588,"BSTAR":0.00030895808,"MEAN_MOTION_DOT":9.376e-5,"MEAN_MOTION_DDOT":0},{"OBJECT_NAME":"STARLINK-35008","OBJECT_ID":"2025-192E","EPOCH":"2026-03-09T22:00:01.999584","MEAN_MOTION":15.30164779,"ECCENTRICITY":0.00010153,"INCLINATION":53.1577,"RA_OF_ASC_NODE":231.3051,"ARG_OF_PERICENTER":78.1444,"MEAN_ANOMALY":110.8383,"EPHEMERIS_TYPE":0,"CLASSIFICATION_TYPE":"U","NORAD_CAT_ID":65408,"ELEMENT_SET_NO":999,"REV_AT_EPOCH":578,"BSTAR":0.0027990517,"MEAN_MOTION_DOT":0.00083384,"MEAN_MOTION_DDOT":0}]
